CCSDS_OMM_VERS = 2.0
CREATION_DATE  = 
ORIGINATOR     = 

OBJECT_NAME    = SL-14 R/B
OBJECT_ID      = 1986-046B
CENTER_NAME    = EARTH
REF_FRAME      = TEME
TIME_SYSTEM    = UTC
MEAN_ELEMENT_THEORY = SGP/SGP4

EPOCH          = 2026-01-15T19:09:13.490784
MEAN_MOTION    = 14.85528153
ECCENTRICITY   = .0024144
INCLINATION    = 82.4835
RA_OF_ASC_NODE = 130.1514
ARG_OF_PERICENTER = 45.5752
MEAN_ANOMALY   = 314.7435

EPHEMERIS_TYPE = 0
CLASSIFICATION_TYPE = U
NORAD_CAT_ID   = 16792
ELEMENT_SET_NO = 999
REV_AT_EPOCH   = 11855
BSTAR          = .36499493E-4
MEAN_MOTION_DOT = .341E-5
MEAN_MOTION_DDOT = 0

CCSDS_OMM_VERS = 2.0
CREATION_DATE  = 
ORIGINATOR     = 

OBJECT_NAME    = SL-14 R/B
OBJECT_ID      = 1986-055B
CENTER_NAME    = EARTH
REF_FRAME      = TEME
TIME_SYSTEM    = UTC
MEAN_ELEMENT_THEORY = SGP/SGP4

EPOCH          = 2026-01-15T09:13:05.286144
MEAN_MOTION    = 14.85571579
ECCENTRICITY   = .0019762
INCLINATION    = 82.5206
RA_OF_ASC_NODE = 176.7574
ARG_OF_PERICENTER = 145.0145
MEAN_ANOMALY   = 238.4366

EPHEMERIS_TYPE = 0
CLASSIFICATION_TYPE = U
NORAD_CAT_ID   = 16882
ELEMENT_SET_NO = 999
REV_AT_EPOCH   = 11145
BSTAR          = .44001605E-4
MEAN_MOTION_DOT = .406E-5
MEAN_MOTION_DDOT = 0

CCSDS_OMM_VERS = 2.0
CREATION_DATE  = 
ORIGINATOR     = 

OBJECT_NAME    = AJISAI (EGS)
OBJECT_ID      = 1986-061A
CENTER_NAME    = EARTH
REF_FRAME      = TEME
TIME_SYSTEM    = UTC
MEAN_ELEMENT_THEORY = SGP/SGP4

EPOCH          = 2026-01-15T23:03:07.485120
MEAN_MOTION    = 12.44514979
ECCENTRICITY   = .00113011
INCLINATION    = 50.0078
RA_OF_ASC_NODE = 255.4921
ARG_OF_PERICENTER = 151.8580
MEAN_ANOMALY   = 307.3996

EPHEMERIS_TYPE = 0
CLASSIFICATION_TYPE = U
NORAD_CAT_ID   = 16908
ELEMENT_SET_NO = 999
REV_AT_EPOCH   = 46143
BSTAR          = .2520434E-3
MEAN_MOTION_DOT = -.62E-6
MEAN_MOTION_DDOT = 0

CCSDS_OMM_VERS = 2.0
CREATION_DATE  = 
ORIGINATOR     = 

OBJECT_NAME    = COSMOS 1812
OBJECT_ID      = 1987-003A
CENTER_NAME    = EARTH
REF_FRAME      = TEME
TIME_SYSTEM    = UTC
MEAN_ELEMENT_THEORY = SGP/SGP4

EPOCH          = 2026-01-15T16:27:32.268096
MEAN_MOTION    = 15.84224290
ECCENTRICITY   = .0002756
INCLINATION    = 82.4838
RA_OF_ASC_NODE = 255.0444
ARG_OF_PERICENTER = 48.0022
MEAN_ANOMALY   = 312.1481

EPHEMERIS_TYPE = 0
CLASSIFICATION_TYPE = U
NORAD_CAT_ID   = 17295
ELEMENT_SET_NO = 999
REV_AT_EPOCH   = 13601
BSTAR          = .49936546E-3
MEAN_MOTION_DOT = .113528E-2
MEAN_MOTION_DDOT = 0

CCSDS_OMM_VERS = 2.0
CREATION_DATE  = 
ORIGINATOR     = 

OBJECT_NAME    = SL-14 R/B
OBJECT_ID      = 1987-024B
CENTER_NAME    = EARTH
REF_FRAME      = TEME
TIME_SYSTEM    = UTC
MEAN_ELEMENT_THEORY = SGP/SGP4

EPOCH          = 2026-01-15T18:48:03.465216
MEAN_MOTION    = 14.86068204
ECCENTRICITY   = .00196935
INCLINATION    = 82.5301
RA_OF_ASC_NODE = 142.4756
ARG_OF_PERICENTER = 77.2118
MEAN_ANOMALY   = 283.1298

EPHEMERIS_TYPE = 0
CLASSIFICATION_TYPE = U
NORAD_CAT_ID   = 17567
ELEMENT_SET_NO = 999
REV_AT_EPOCH   = 8027
BSTAR          = .37426168E-4
MEAN_MOTION_DOT = .353E-5
MEAN_MOTION_DDOT = 0

CCSDS_OMM_VERS = 2.0
CREATION_DATE  = 
ORIGINATOR     = 

OBJECT_NAME    = COSMOS 1833
OBJECT_ID      = 1987-027A
CENTER_NAME    = EARTH
REF_FRAME      = TEME
TIME_SYSTEM    = UTC
MEAN_ELEMENT_THEORY = SGP/SGP4

EPOCH          = 2026-01-15T13:20:12.998400
MEAN_MOTION    = 14.13044296
ECCENTRICITY   = .0024126
INCLINATION    = 70.9192
RA_OF_ASC_NODE = 77.6952
ARG_OF_PERICENTER = 285.0802
MEAN_ANOMALY   = 74.7650

EPHEMERIS_TYPE = 0
CLASSIFICATION_TYPE = U
NORAD_CAT_ID   = 17589
ELEMENT_SET_NO = 999
REV_AT_EPOCH   = 281
BSTAR          = .18504E-3
MEAN_MOTION_DOT = .298E-5
MEAN_MOTION_DDOT = 0

CCSDS_OMM_VERS = 2.0
CREATION_DATE  = 
ORIGINATOR     = 

OBJECT_NAME    = SL-16 R/B
OBJECT_ID      = 1987-027B
CENTER_NAME    = EARTH
REF_FRAME      = TEME
TIME_SYSTEM    = UTC
MEAN_ELEMENT_THEORY = SGP/SGP4

EPOCH          = 2026-01-15T11:18:56.073312
MEAN_MOTION    = 14.17160368
ECCENTRICITY   = .00064478
INCLINATION    = 71.0033
RA_OF_ASC_NODE = 28.6371
ARG_OF_PERICENTER = 223.8020
MEAN_ANOMALY   = 136.2593

EPHEMERIS_TYPE = 0
CLASSIFICATION_TYPE = U
NORAD_CAT_ID   = 17590
ELEMENT_SET_NO = 999
REV_AT_EPOCH   = 780
BSTAR          = -.20377781E-4
MEAN_MOTION_DOT = -.89E-6
MEAN_MOTION_DDOT = 0

CCSDS_OMM_VERS = 2.0
CREATION_DATE  = 
ORIGINATOR     = 

OBJECT_NAME    = SL-14 R/B
OBJECT_ID      = 1987-038B
CENTER_NAME    = EARTH
REF_FRAME      = TEME
TIME_SYSTEM    = UTC
MEAN_ELEMENT_THEORY = SGP/SGP4

EPOCH          = 2026-01-15T09:56:30.052608
MEAN_MOTION    = 14.85300997
ECCENTRICITY   = .0018884
INCLINATION    = 82.5025
RA_OF_ASC_NODE = 346.9801
ARG_OF_PERICENTER = 345.6201
MEAN_ANOMALY   = 14.4475

EPHEMERIS_TYPE = 0
CLASSIFICATION_TYPE = U
NORAD_CAT_ID   = 17912
ELEMENT_SET_NO = 999
REV_AT_EPOCH   = 7132
BSTAR          = .41536363E-4
MEAN_MOTION_DOT = .382E-5
MEAN_MOTION_DDOT = 0

CCSDS_OMM_VERS = 2.0
CREATION_DATE  = 
ORIGINATOR     = 

OBJECT_NAME    = COSMOS 1844
OBJECT_ID      = 1987-041A
CENTER_NAME    = EARTH
REF_FRAME      = TEME
TIME_SYSTEM    = UTC
MEAN_ELEMENT_THEORY = SGP/SGP4

EPOCH          = 2026-01-15T18:55:12.131040
MEAN_MOTION    = 14.14537573
ECCENTRICITY   = .00282776
INCLINATION    = 70.8996
RA_OF_ASC_NODE = 145.7585
ARG_OF_PERICENTER = 102.8318
MEAN_ANOMALY   = 257.5965

EPHEMERIS_TYPE = 0
CLASSIFICATION_TYPE = U
NORAD_CAT_ID   = 17973
ELEMENT_SET_NO = 999
REV_AT_EPOCH   = 99610
BSTAR          = -.11683961E-3
MEAN_MOTION_DOT = -.273E-5
MEAN_MOTION_DDOT = 0

CCSDS_OMM_VERS = 2.0
CREATION_DATE  = 
ORIGINATOR     = 

OBJECT_NAME    = SL-14 R/B
OBJECT_ID      = 1987-055B
CENTER_NAME    = EARTH
REF_FRAME      = TEME
TIME_SYSTEM    = UTC
MEAN_ELEMENT_THEORY = SGP/SGP4

EPOCH          = 2026-01-16T00:09:22.579776
MEAN_MOTION    = 14.85559158
ECCENTRICITY   = .00205182
INCLINATION    = 82.4976
RA_OF_ASC_NODE = 38.6874
ARG_OF_PERICENTER = 183.4758
MEAN_ANOMALY   = 176.6319

EPHEMERIS_TYPE = 0
CLASSIFICATION_TYPE = U
NORAD_CAT_ID   = 18153
ELEMENT_SET_NO = 999
REV_AT_EPOCH   = 6211
BSTAR          = .34592419E-4
MEAN_MOTION_DOT = .324E-5
MEAN_MOTION_DDOT = 0

CCSDS_OMM_VERS = 2.0
CREATION_DATE  = 
ORIGINATOR     = 

OBJECT_NAME    = COSMOS 1867
OBJECT_ID      = 1987-060A
CENTER_NAME    = EARTH
REF_FRAME      = TEME
TIME_SYSTEM    = UTC
MEAN_ELEMENT_THEORY = SGP/SGP4

EPOCH          = 2026-01-15T15:01:05.991456
MEAN_MOTION    = 14.31492657
ECCENTRICITY   = .0013859
INCLINATION    = 65.0111
RA_OF_ASC_NODE = 95.3092
ARG_OF_PERICENTER = 274.4219
MEAN_ANOMALY   = 85.5282

EPHEMERIS_TYPE = 0
CLASSIFICATION_TYPE = U
NORAD_CAT_ID   = 18187
ELEMENT_SET_NO = 999
REV_AT_EPOCH   = 1234
BSTAR          = .15433E-4
MEAN_MOTION_DOT = -.59E-6
MEAN_MOTION_DDOT = 0

CCSDS_OMM_VERS = 2.0
CREATION_DATE  = 
ORIGINATOR     = 

OBJECT_NAME    = SL-14 R/B
OBJECT_ID      = 1988-001B
CENTER_NAME    = EARTH
REF_FRAME      = TEME
TIME_SYSTEM    = UTC
MEAN_ELEMENT_THEORY = SGP/SGP4

EPOCH          = 2026-01-15T22:20:36.497472
MEAN_MOTION    = 14.85461928
ECCENTRICITY   = .00193528
INCLINATION    = 82.5113
RA_OF_ASC_NODE = 244.9891
ARG_OF_PERICENTER = 55.5459
MEAN_ANOMALY   = 304.7582

EPHEMERIS_TYPE = 0
CLASSIFICATION_TYPE = U
NORAD_CAT_ID   = 18749
ELEMENT_SET_NO = 999
REV_AT_EPOCH   = 3419
BSTAR          = .31982169E-4
MEAN_MOTION_DOT = .301E-5
MEAN_MOTION_DDOT = 0

